C/1999 F2 (Dalcanton),e,56.4273,210.2976,352.3609,2703,0.0000070,0.998254,0.0025,08/10.0/1999,2000,g  5.0,4.0
# From MPC 34734
C/1999 G1 (LINEAR),e,76.3160,23.4841,136.0063,26.10993,0.0073875,0.845258,2.7637,08/10.0/1999,2000,g  7.5,4.0
# From MPC 35814
C/1999 H1 (Lee),e,149.3534,162.6490,40.6996,2881,0.0000064,0.999754,0.0002,08/10.0/1999,2000,g  7.0,4.0
# From MPC 35814
C/1999 H3 (LINEAR),h,08/18.2492/1999,115.8403,332.7238,101.9143,1.002711,3.500825,2000,5.0,4.0
# From MPC 35814
C/1999 J2 (Skiff),h,04/06.1143/2000,86.4110,50.0455,127.1462,1.000370,7.109991,2000,2.0,4.0
# From MPC 35814
C/1999 J3 (LINEAR),e,101.6555,228.9777,161.9813,1540,0.0000163,0.999366,359.9993,08/10.0/1999,2000,g 12.0,4.0
# From MPC 34734
C/1999 J4 (LINEAR),p,11/17.6088/1999,118.9108,95.1591,3.780400,264.4841,2000,11.5,2.0
# From MPC 35553
P/1999 J5 (LINEAR),e,13.7175,112.0141,132.2813,4.470443,0.1042745,0.169506,9.3033,08/10.0/1999,2000,g  9.0,4.0
# From MPC 35553
C/1999 K2 (Ferris),e,82.1935,300.3189,4.5744,154.9167,0.0005112,0.965850,0.0621,08/10.0/1999,2000,g  6.0,4.0
# From MPC 35207
C/1999 K3 (LINEAR),e,92.2749,266.9142,341.1496,233.0333,0.0002771,0.991723,0.0453,08/10.0/1999,2000,g 12.0,4.0
# From MPC 35554
C/1999 K5 (LINEAR),p,07/04.5754/2000,89.4241,241.5250,3.254135,106.3811,2000,6.0,4.0
# From MPC 35814
C/1999 K6 (LINEAR),e,46.3447,245.3728,56.7598,349.3000,0.0001510,0.993567,0.0025,08/10.0/1999,2000,g 11.0,4.0
# From MPC 35814
C/1999 K8 (LINEAR),h,04/24.2737/2000,52.7369,195.3917,164.6174,1.000278,4.200525,2000,5.0,4.0
# From MPC 35208
C/1999 L2 (LINEAR),e,43.9424,94.2896,178.7186,392.6234,0.0001267,0.995149,0.0006,08/10.0/1999,2000,g 13.0,4.0
# From MPC 35208
C/1999 L3 (LINEAR),e,166.0998,140.1537,353.2145,78.71353,0.0014113,0.974707,359.7913,08/10.0/1999,2000,g 10.0,4.0
# From MPC 35814
C/1999 N2 (Lynn),e,111.6561,254.6757,357.8340,299.6583,0.0001900,0.997459,0.0034,08/10.0/1999,2000,g  9.5,4.0
# From MPC 35814
C/1999 N4 (LINEAR),p,05/25.5263/2000,156.9162,90.5786,5.499088,345.8616,2000,6.0,4.0
# From MPC 35814
P/1999 RO28 (LONEOS),e,8.1736,148.4432,219.8711,3.507028,0.1500705,0.648934,359.9477,10/02.0/1999,2000,g 20.0,2.0
# From MPC 35815
C/1999 S2 (McNaught-Watson),p,05/22.6014/2001,66.3923,318.0272,6.930854,67.7574,2000,2.0,4.0
# From MPC 35815
C/1999 S3 (LINEAR),p,11/06.2541/1999,71.6991,42.9036,1.924490,12.4859,2000,10.0,4.0
# From MPEC 1999-T26
C/1999 S4 (LINEAR),p,07/24.2439/2000,149.4778,151.4192,0.753678,83.1934,2000,7.0,4.0
# From MPEC 1999-T42
C/1999 T1 (McNaught-Hartley),p,12/09.634/2000,79.094,345.173,1.15380,181.735,2000,7.0,4.0
